OBJECT_NAME,OBJECT_ID,EPOCH,MEAN_MOTION,ECCENTRICITY,INCLINATION,RA_OF_ASC_NODE,ARG_OF_PERICENTER,MEAN_ANOMALY,EPHEMERIS_TYPE,CLASSIFICATION_TYPE,NORAD_CAT_ID,ELEMENT_SET_NO,REV_AT_EPOCH,BSTAR,MEAN_MOTION_DOT,MEAN_MOTION_DDOT
STARLINK-37888,2026-133AD,2026-07-09T06:00:02.000160,15.34420252,.00015885,53.1601,212.3527,65.1836,342.5801,0,U,69535,999,542,-.10405227E-2,-.35391E-3,0
STARLINK-37889,2026-133AE,2026-07-08T11:07:17.758272,15.49441411,.00022157,53.1602,216.8181,61.2703,298.8528,0,U,69536,999,538,.11092203E-2,.62025E-3,0
2026-134A,2026-134A,2026-07-08T19:13:58.596096,15.09423719,.0015556,97.7005,259.9899,192.5685,167.5158,0,U,69538,999,357,.24397904E-3,.3846E-4,0
2026-134B,2026-134B,2026-07-09T03:07:42.062880,15.09582445,.00156542,97.6982,260.3187,193.7119,166.3687,0,U,69539,999,361,.21454823E-3,.3389E-4,0
2026-134C,2026-134C,2026-07-09T03:06:58.699584,15.09614585,.00150814,97.6988,260.3210,194.8355,165.2434,0,U,69540,999,361,.21175187E-3,.3346E-4,0
2026-134D,2026-134D,2026-07-08T17:32:59.762400,15.09670232,.00161068,97.7026,259.9343,196.0280,164.0442,0,U,69541,999,355,.23105921E-3,.3665E-4,0
2026-134E,2026-134E,2026-07-09T03:05:09.927168,15.09694088,.00158586,97.7045,260.3400,195.3124,164.7627,0,U,69542,999,361,.21036247E-3,.3332E-4,0
2026-134F,2026-134F,2026-07-09T03:04:07.101408,15.09739668,.00151404,97.6998,260.3268,196.9047,163.1679,0,U,69543,999,361,.20623134E-3,.3269E-4,0
2026-134G,2026-134G,2026-07-09T07:48:30.355776,15.09827057,.0015605,97.7043,260.5416,196.9563,163.1147,0,U,69544,999,364,.23033003E-3,.3668E-4,0
2026-134H,2026-134H,2026-07-08T22:14:23.910432,15.09890455,.0015416,97.7027,260.1391,199.7422,160.3212,0,U,69545,999,357,.2244696E-3,.3579E-4,0
STARLINK-37880,2026-135A,2026-07-09T06:00:02.000160,15.61396040,.00017854,97.2847,218.4686,98.7541,159.4393,0,U,69546,999,485,-.32066678E-1,-.239302E-1,0
STARLINK-37881,2026-135B,2026-07-09T06:00:02.000160,15.70454078,.0001133,97.2851,218.5083,94.7036,264.9084,0,U,69547,999,485,-.11836213E-1,-.1293098E-1,0
STARLINK-37265,2026-135C,2026-07-09T01:17:34.951200,15.80954968,.00009918,97.2843,218.3179,112.5226,247.6148,0,U,69548,999,371,.17020638E-2,.341125E-2,0
STARLINK-37871,2026-135D,2026-07-08T20:49:42.725568,15.72674958,.00013073,97.2847,218.1118,270.3929,89.7185,0,U,69549,999,368,-.65459018E-2,-.798572E-2,0
STARLINK-37865,2026-135E,2026-07-09T06:00:02.000160,15.70776848,.00011286,97.2848,218.5155,67.3296,307.0474,0,U,69550,999,485,-.23785904E-1,-.2566234E-1,0
STARLINK-37862,2026-135F,2026-07-08T05:25:08.609376,15.80784297,.00009425,97.2823,217.4548,20.2212,339.9093,0,U,69551,999,358,.62651599E-4,.11858E-3,0
STARLINK-37861,2026-135G,2026-07-09T06:00:02.000160,15.73099477,.00013436,97.2844,218.5276,53.3163,350.2066,0,U,69552,999,485,-.20407165E-1,-.2394613E-1,0
STARLINK-37859,2026-135H,2026-07-09T06:00:02.000160,15.73190744,.00014633,97.2842,218.5356,63.1699,359.0144,0,U,69553,999,485,-.21982767E-1,-.2620456E-1,0
STARLINK-37860,2026-135J,2026-07-09T06:00:02.000160,15.76679136,.00011512,97.2841,218.5440,64.4611,13.1640,0,U,69554,999,485,-.55476577E-2,-.804707E-2,0
STARLINK-37858,2026-135K,2026-07-09T06:00:02.000160,15.75186684,.00016569,97.2845,218.5452,66.0742,16.5850,0,U,69555,999,485,-.20181996E-1,-.2623507E-1,0
STARLINK-37927,2026-135L,2026-07-09T07:16:28.824960,15.71196688,.00013658,97.2843,218.5918,349.3579,10.7655,0,U,69556,999,375,-.5852053E-2,-.68015E-2,0
STARLINK-37929,2026-135M,2026-07-09T06:00:02.000160,15.65990489,.00012604,97.2845,218.5205,61.8098,324.7130,0,U,69557,999,485,-.29510568E-1,-.2607386E-1,0
STARLINK-37954,2026-135N,2026-07-09T06:00:02.000160,15.65953899,.00010625,97.2850,218.5271,73.2888,318.6734,0,U,69558,999,485,-.28126351E-1,-.2497575E-1,0
STARLINK-37958,2026-135P,2026-07-07T10:57:14.517792,15.81197842,.00008161,97.2854,216.6654,105.5963,254.5396,0,U,69559,999,346,.18839808E-2,.383711E-2,0
STARLINK-37950,2026-135Q,2026-07-09T00:56:09.631968,15.80907766,.00016027,97.2844,218.3394,110.3509,249.7932,0,U,69560,999,371,.96177354E-3,.188918E-2,0
STARLINK-37952,2026-135R,2026-07-09T06:00:02.000160,15.70452811,.00015055,97.2845,218.5532,61.2332,30.7789,0,U,69561,999,485,-.23295858E-1,-.2490768E-1,0
STARLINK-37935,2026-135S,2026-07-09T06:00:02.000160,15.65112217,.0001122,97.2841,218.5356,72.1963,338.6690,0,U,69562,999,485,-.29187949E-1,-.2504613E-1,0
STARLINK-37936,2026-135T,2026-07-09T06:00:02.000160,15.66931661,.00019921,97.2847,218.5572,58.1370,49.3246,0,U,69563,999,485,-.26741921E-1,-.2475003E-1,0
STARLINK-37932,2026-135U,2026-07-08T14:04:08.405760,15.80893645,.00015848,97.2839,217.8870,53.5074,306.6340,0,U,69564,999,364,.14234719E-2,.282538E-2,0
