STARLINK-37888          
1 69535U 26133AD  26190.25002315 -.00035391  00000+0 -10405-2 0  9993
2 69535  53.1601 212.3527 0001588  65.1836 342.5801 15.34420252  5421
STARLINK-37889          
1 69536U 26133AE  26189.46339998  .00062025  00000+0  11092-2 0  9990
2 69536  53.1602 216.8181 0002215  61.2703 298.8528 15.49441411  5386
2026-134A               
1 69538U 26134A   26189.80137264  .00003846  00000+0  24398-3 0  9993
2 69538  97.7005 259.9899 0015556 192.5685 167.5158 15.09423719  3579
2026-134B               
1 69539U 26134B   26190.13034795  .00003389  00000+0  21455-3 0  9990
2 69539  97.6982 260.3187 0015654 193.7119 166.3687 15.09582445  3614
2026-134C               
1 69540U 26134C   26190.12984606  .00003346  00000+0  21175-3 0  9998
2 69540  97.6988 260.3210 0015081 194.8355 165.2434 15.09614585  3616
2026-134D               
1 69541U 26134D   26189.73124725  .00003665  00000+0  23106-3 0  9992
2 69541  97.7026 259.9343 0016106 196.0280 164.0442 15.09670232  3552
2026-134E               
1 69542U 26134E   26190.12858712  .00003332  00000+0  21036-3 0  9999
2 69542  97.7045 260.3400 0015858 195.3124 164.7627 15.09694088  3610
2026-134F               
1 69543U 26134F   26190.12785997  .00003269  00000+0  20623-3 0  9994
2 69543  97.6998 260.3268 0015140 196.9047 163.1679 15.09739668  3618
2026-134G               
1 69544U 26134G   26190.32535134  .00003668  00000+0  23033-3 0  9994
2 69544  97.7043 260.5416 0015605 196.9563 163.1147 15.09827057  3640
2026-134H               
1 69545U 26134H   26189.92666563  .00003579  00000+0  22447-3 0  9999
2 69545  97.7027 260.1391 0015416 199.7422 160.3212 15.09890455  3572
STARLINK-37880          
1 69546U 26135A   26190.25002315 -.02393020  00000+0 -32067-1 0  9992
2 69546  97.2847 218.4686 0001785  98.7541 159.4393 15.61396040  4855
STARLINK-37881          
1 69547U 26135B   26190.25002315 -.01293098  00000+0 -11836-1 0  9997
2 69547  97.2851 218.5083 0001133  94.7036 264.9084 15.70454078  4850
STARLINK-37265          
1 69548U 26135C   26190.05387675  .00341125  00000+0  17021-2 0  9996
2 69548  97.2843 218.3179 0000991 112.5226 247.6148 15.80954968  3714
STARLINK-37871          
1 69549U 26135D   26189.86785562 -.00798572  00000+0 -65459-2 0  9993
2 69549  97.2847 218.1118 0001307 270.3929  89.7185 15.72674958  3686
STARLINK-37865          
1 69550U 26135E   26190.25002315 -.02566234  00000+0 -23786-1 0  9994
2 69550  97.2848 218.5155 0001128  67.3296 307.0474 15.70776848  4852
STARLINK-37862          
1 69551U 26135F   26189.22579409  .00011858  00000+0  62652-4 0  9994
2 69551  97.2823 217.4548 0000942  20.2212 339.9093 15.80784297  3587
STARLINK-37861          
1 69552U 26135G   26190.25002315 -.02394613  00000+0 -20407-1 0  9993
2 69552  97.2844 218.5276 0001343  53.3163 350.2066 15.73099477  4857
STARLINK-37859          
1 69553U 26135H   26190.25002315 -.02620456  00000+0 -21983-1 0  9991
2 69553  97.2842 218.5356 0001463  63.1699 359.0144 15.73190744  4854
STARLINK-37860          
1 69554U 26135J   26190.25002315 -.00804707  00000+0 -55477-2 0  9999
2 69554  97.2841 218.5440 0001151  64.4611  13.1640 15.76679136  4859
STARLINK-37858          
1 69555U 26135K   26190.25002315 -.02623507  00000+0 -20182-1 0  9993
2 69555  97.2845 218.5452 0001656  66.0742  16.5850 15.75186684  4850
STARLINK-37927          
1 69556U 26135L   26190.30311140 -.00680150  00000+0 -58521-2 0  9993
2 69556  97.2843 218.5918 0001365 349.3579  10.7655 15.71196688  3756
STARLINK-37929          
1 69557U 26135M   26190.25002315 -.02607386  00000+0 -29511-1 0  9997
2 69557  97.2845 218.5205 0001260  61.8098 324.7130 15.65990489  4856
STARLINK-37954          
1 69558U 26135N   26190.25002315 -.02497575  00000+0 -28126-1 0  9996
2 69558  97.2850 218.5271 0001062  73.2888 318.6734 15.65953899  4856
STARLINK-37958          
1 69559U 26135P   26188.45641803  .00383711  00000+0  18840-2 0  9992
2 69559  97.2854 216.6654 0000816 105.5963 254.5396 15.81197842  3468
STARLINK-37950          
1 69560U 26135Q   26190.03900037  .00188918  00000+0  96177-3 0  9990
2 69560  97.2844 218.3394 0001602 110.3509 249.7932 15.80907766  3716
STARLINK-37952          
1 69561U 26135R   26190.25002315 -.02490768  00000+0 -23296-1 0  9990
2 69561  97.2845 218.5532 0001505  61.2332  30.7789 15.70452811  4853
STARLINK-37935          
1 69562U 26135S   26190.25002315 -.02504613  00000+0 -29188-1 0  9992
2 69562  97.2841 218.5356 0001122  72.1963 338.6690 15.65112217  4858
STARLINK-37936          
1 69563U 26135T   26190.25002315 -.02475003  00000+0 -26742-1 0  9996
2 69563  97.2847 218.5572 0001992  58.1370  49.3246 15.66931661  4852
STARLINK-37932          
1 69564U 26135U   26189.58620840  .00282538  00000+0  14235-2 0  9990
2 69564  97.2839 217.8870 0001584  53.5074 306.6340 15.80893645  3649
